GLOBALSTAR M045         
1 25676U 99019A   24128.46584307 -.00000132  00000+0 -34052-3 0  9992
2 25676  51.9996  21.6351 0001059 103.3957  67.5568 12.27035828143584
GLOBALSTAR M019         
1 25677U 99019B   24128.41551193  .00000007  00000+0  10107-2 0  9998
2 25677  51.9846 123.5958 0000891 228.9727 278.5691 12.13854600135861
GLOBALSTAR M042         
1 25679U 99019D   24128.40835545 -.00000061  00000+0  28871-3 0  9994
2 25679  51.9991 116.4542 0002802 181.3134 345.2692 12.22061178135641
GLOBALSTAR M025         
1 25770U 99031A   24128.46380229 -.00000052  00000+0  47559-3 0  9994
2 25770  51.9850  19.1523 0001245 163.1771   7.2864 11.22550634436144
GLOBALSTAR M047         
1 25772U 99031C   24128.55106622 -.00000084  00000+0 -39751-3 0  9990
2 25772  51.9841  69.0482 0016310 287.7643  72.1383 11.31920392425174
GLOBALSTAR M052         
1 25773U 99031D   24128.52334493 -.00000003  00000+0  20968-2 0  9996
2 25773  51.9828 147.7722 0002872 223.3931 306.6835 11.15051192433255
